{"type": "FeatureCollection", "features": [ {"type": "Feature", "properties": {"norad_id": 36011, "name": "IRIDIUM 33 DEB", "group": "iridium-33-debris", "lat": -2.1963310457968817, "lon": -149.47779841757597, "alt_km": 744.1957259532956, "timestamp": "2025-12-24T11:33:00.403426+00:00", "meta": {"OBJECT_NAME": "IRIDIUM 33 DEB", "OBJECT_ID": "1997-051US", "EPOCH": "2025-12-20T20:53:54.330144", "MEAN_MOTION": 14.41351593, "ECCENTRICITY": 0.0018529, "INCLINATION": 86.3402, "RA_OF_ASC_NODE": 31.9321, "ARG_OF_PERICENTER": 188.5725, "MEAN_ANOMALY": 351.0197, "EPHEMERIS_TYPE": 0, "CLASSIFICATION_TYPE": "U", "NORAD_CAT_ID": 36011, "ELEMENT_SET_NO": 999, "REV_AT_EPOCH": 64657, "BSTAR": 0.00031216, "MEAN_MOTION_DOT": 1.032e-05, "MEAN_MOTION_DDOT": 0}, "tle": {"line1": "1 36011U 97051US  25354.87076771  .00001032  00000+0  31216-3 0  9996", "line2": "2 36011  86.3402  31.9321 0018529 188.5725 351.0197 14.41351593646576"}}, "geometry": {"type": "Point", "coordinates": [-149.47779841757597, -2.1963310457968817]}}, {"type": "Feature", "properties": {"norad_id": 36012, "name": "IRIDIUM 33 DEB", "group": "iridium-33-debris", "lat": -71.5193700650316, "lon": 133.52944447780712, "alt_km": 698.2097113359778, "timestamp": "2025-12-24T11:33:00.403438+00:00", "meta": {"OBJECT_NAME": "IRIDIUM 33 DEB", "OBJECT_ID": "1997-051UT", "EPOCH": "2025-12-23T02:12:50.688576", "MEAN_MOTION": 14.19255751, "ECCENTRICITY": 0.02111422, "INCLINATION": 86.4409, "RA_OF_ASC_NODE": 303.3574, "ARG_OF_PERICENTER": 229.8799, "MEAN_ANOMALY": 128.3722, "EPHEMERIS_TYPE": 0, "CLASSIFICATION_TYPE": "U", "NORAD_CAT_ID": 36012, "ELEMENT_SET_NO": 999, "REV_AT_EPOCH": 65631, "BSTAR": 0.004288895, "MEAN_MOTION_DOT": 0.00011258, "MEAN_MOTION_DDOT": 0}, "tle": {"line1": "1 36012U 97051UT  25357.09225334  .00011258  00000+0  42889-2 0  9993", "line2": "2 36012  86.4409 303.3574 0211142 229.8799 128.3722 14.19255751656313"}}, "geometry": {"type": "Point", "coordinates": [133.52944447780712, -71.5193700650316]}}, {"type": "Feature", "properties": {"norad_id": 36028, "name": "IRIDIUM 33 DEB", "group": "iridium-33-debris", "lat": -42.22177680340755, "lon": -62.17285501696744, "alt_km": 578.6153930853798, "timestamp": "2025-12-24T11:33:00.403448+00:00", "meta": {"OBJECT_NAME": "IRIDIUM 33 DEB", "OBJECT_ID": "1997-051VK", "EPOCH": "2025-12-19T03:17:05.091936", "MEAN_MOTION": 14.95591145, "ECCENTRICITY": 0.00208389, "INCLINATION": 86.3218, "RA_OF_ASC_NODE": 303.6882, "ARG_OF_PERICENTER": 33.6007, "MEAN_ANOMALY": 326.6539, "EPHEMERIS_TYPE": 0, "CLASSIFICATION_TYPE": "U", "NORAD_CAT_ID": 36028, "ELEMENT_SET_NO": 999, "REV_AT_EPOCH": 87220, "BSTAR": 0.001783846, "MEAN_MOTION_DOT": 0.00019939, "MEAN_MOTION_DDOT": 0}, "tle": {"line1": "1 36028U 97051VK  25353.13686449  .00019939  00000+0  17838-2 0  9999", "line2": "2 36028  86.3218 303.6882 0020838  33.6007 326.6539 14.95591145872206"}}, "geometry": {"type": "Point", "coordinates": [-62.17285501696744, -42.22177680340755]}}, {"type": "Feature", "properties": {"norad_id": 36080, "name": "IRIDIUM 33 DEB", "group": "iridium-33-debris", "lat": -86.23388573616857, "lon": -75.05878386725136, "alt_km": 755.9465342580897, "timestamp": "2025-12-24T11:33:00.403459+00:00", "meta": {"OBJECT_NAME": "IRIDIUM 33 DEB", "OBJECT_ID": "1997-051VM", "EPOCH": "2025-12-19T07:27:26.572608", "MEAN_MOTION": 14.4663152, "ECCENTRICITY": 0.0018893, "INCLINATION": 86.3193, "RA_OF_ASC_NODE": 5.1242, "ARG_OF_PERICENTER": 135.9522, "MEAN_ANOMALY": 224.319, "EPHEMERIS_TYPE": 0, "CLASSIFICATION_TYPE": "U", "NORAD_CAT_ID": 36080, "ELEMENT_SET_NO": 999, "REV_AT_EPOCH": 47509, "BSTAR": 0.00042458, "MEAN_MOTION_DOT": 1.555e-05, "MEAN_MOTION_DDOT": 0}, "tle": {"line1": "1 36080U 97051VM  25353.31072422  .00001555  00000+0  42458-3 0  9999", "line2": "2 36080  86.3193   5.1242 0018893 135.9522 224.3190 14.46631520475097"}}, "geometry": {"type": "Point", "coordinates": [-75.05878386725136, -86.23388573616857]}}, {"type": "Feature", "properties": {"norad_id": 36083, "name": "IRIDIUM 33 DEB", "group": "iridium-33-debris", "lat": -39.39409899884459, "lon": -147.89081306482115, "alt_km": 739.2860716190726, "timestamp": "2025-12-24T11:33:00.403468+00:00", "meta": {"OBJECT_NAME": "IRIDIUM 33 DEB", "OBJECT_ID": "1997-051VQ", "EPOCH": "2025-12-21T09:19:18.145344", "MEAN_MOTION": 14.43234813, "ECCENTRICITY": 0.00261912, "INCLINATION": 86.3424, "RA_OF_ASC_NODE": 30.4295, "ARG_OF_PERICENTER": 193.4541, "MEAN_ANOMALY": 166.5965, "EPHEMERIS_TYPE": 0, "CLASSIFICATION_TYPE": "U", "NORAD_CAT_ID": 36083, "ELEMENT_SET_NO": 999, "REV_AT_EPOCH": 85574, "BSTAR": 0.00039895396, "MEAN_MOTION_DOT": 1.367e-05, "MEAN_MOTION_DDOT": 0}, "tle": {"line1": "1 36083U 97051VQ  25355.38840446  .00001367  00000+0  39895-3 0  9992", "line2": "2 36083  86.3424  30.4295 0026191 193.4541 166.5965 14.43234813855748"}}, "geometry": {"type": "Point", "coordinates": [-147.89081306482115, -39.39409899884459]}}, {"type": "Feature", "properties": {"norad_id": 36390, "name": "IRIDIUM 33 DEB", "group": "iridium-33-debris", "lat": -63.33416391855103, "lon": 121.42983418608539, "alt_km": 667.9856857756613, "timestamp": "2025-12-24T11:33:00.403481+00:00", "meta": {"OBJECT_NAME": "IRIDIUM 33 DEB", "OBJECT_ID": "1997-051VU", "EPOCH": "2025-12-22T03:02:43.455840", "MEAN_MOTION": 14.73721752, "ECCENTRICITY": 0.00320639, "INCLINATION": 86.292, "RA_OF_ASC_NODE": 295.0892, "ARG_OF_PERICENTER": 130.5813, "MEAN_ANOMALY": 229.8203, "EPHEMERIS_TYPE": 0, "CLASSIFICATION_TYPE": "U", "NORAD_CAT_ID": 36390, "ELEMENT_SET_NO": 999, "REV_AT_EPOCH": 66400, "BSTAR": 0.0010853374, "MEAN_MOTION_DOT": 7.17e-05, "MEAN_MOTION_DDOT": 0}, "tle": {"line1": "1 36390U 97051VU  25356.12689185  .00007170  00000+0  10853-2 0  9997", "line2": "2 36390  86.2920 295.0892 0032063 130.5813 229.8203 14.73721752664001"}}, "geometry": {"type": "Point", "coordinates": [121.42983418608539, -63.33416391855103]}}, {"type": "Feature", "properties": {"norad_id": 36483, "name": "IRIDIUM 33 DEB", "group": "iridium-33-debris", "lat": 47.05483895455617, "lon": -136.438308168712, "alt_km": 729.0057918872726, "timestamp": "2025-12-24T11:33:00.403491+00:00", "meta": {"OBJECT_NAME": "IRIDIUM 33 DEB", "OBJECT_ID": "1997-051VZ", "EPOCH": "2025-12-21T21:28:56.984736", "MEAN_MOTION": 14.45839576, "ECCENTRICITY": 0.00113894, "INCLINATION": 86.3785, "RA_OF_ASC_NODE": 48.5705, "ARG_OF_PERICENTER": 100.875, "MEAN_ANOMALY": 259.3734, "EPHEMERIS_TYPE": 0, "CLASSIFICATION_TYPE": "U", "NORAD_CAT_ID": 36483, "ELEMENT_SET_NO": 999, "REV_AT_EPOCH": 65278, "BSTAR": 0.00044994046, "MEAN_MOTION_DOT": 1.617e-05, "MEAN_MOTION_DDOT": 0}, "tle": {"line1": "1 36483U 97051VZ  25355.89510399  .00001617  00000+0  44994-3 0  9997", "line2": "2 36483  86.3785  48.5705 0011389 100.8750 259.3734 14.45839576652788"}}, "geometry": {"type": "Point", "coordinates": [-136.438308168712, 47.05483895455617]}}, {"type": "Feature", "properties": {"norad_id": 36490, "name": "IRIDIUM 33 DEB", "group": "iridium-33-debris", "lat": -56.02530687671051, "lon": -169.42140779322133, "alt_km": 651.3381219379698, "timestamp": "2025-12-24T11:33:00.403501+00:00", "meta": {"OBJECT_NAME": "IRIDIUM 33 DEB", "OBJECT_ID": "1997-051WG", "EPOCH": "2025-12-23T18:13:03.957312", "MEAN_MOTION": 14.76410999, "ECCENTRICITY": 0.00050592, "INCLINATION": 86.3652, "RA_OF_ASC_NODE": 5.4915, "ARG_OF_PERICENTER": 59.5237, "MEAN_ANOMALY": 300.6482, "EPHEMERIS_TYPE": 0, "CLASSIFICATION_TYPE": "U", "NORAD_CAT_ID": 36490, "ELEMENT_SET_NO": 999, "REV_AT_EPOCH": 86647, "BSTAR": 0.0016428856, "MEAN_MOTION_DOT": 0.00011451, "MEAN_MOTION_DDOT": 0}, "tle": {"line1": "1 36490U 97051WG  25357.75907358  .00011451  00000+0  16429-2 0  9995", "line2": "2 36490  86.3652   5.4915 0005059  59.5237 300.6482 14.76410999866472"}}, "geometry": {"type": "Point", "coordinates": [-169.42140779322133, -56.02530687671051]}}, {"type": "Feature", "properties": {"norad_id": 36493, "name": "IRIDIUM 33 DEB", "group": "iridium-33-debris", "lat": 54.11762930116858, "lon": 11.514980135847008, "alt_km": 671.0290926556327, "timestamp": "2025-12-24T11:33:00.403511+00:00", "meta": {"OBJECT_NAME": "IRIDIUM 33 DEB", "OBJECT_ID": "1997-051WK", "EPOCH": "2025-12-23T07:26:33.103968", "MEAN_MOTION": 14.65359392, "ECCENTRICITY": 0.00090124, "INCLINATION": 86.3569, "RA_OF_ASC_NODE": 6.9826, "ARG_OF_PERICENTER": 326.7527, "MEAN_ANOMALY": 33.3119, "EPHEMERIS_TYPE": 0, "CLASSIFICATION_TYPE": "U", "NORAD_CAT_ID": 36493, "ELEMENT_SET_NO": 999, "REV_AT_EPOCH": 74673, "BSTAR": 0.0013164613, "MEAN_MOTION_DOT": 7.136e-05, "MEAN_MOTION_DDOT": 0}, "tle": {"line1": "1 36493U 97051WK  25357.31010537  .00007136  00000+0  13165-2 0  9993", "line2": "2 36493  86.3569   6.9826 0009012 326.7527  33.3119 14.65359392746733"}}, "geometry": {"type": "Point", "coordinates": [11.514980135847008, 54.11762930116858]}}, {"type": "Feature", "properties": {"norad_id": 37548, "name": "IRIDIUM 33 DEB", "group": "iridium-33-debris", "lat": 11.675720922259691, "lon": 39.01591742950217, "alt_km": 736.1415605911443, "timestamp": "2025-12-24T11:33:00.403521+00:00", "meta": {"OBJECT_NAME": "IRIDIUM 33 DEB", "OBJECT_ID": "1997-051XH", "EPOCH": "2025-12-15T20:39:30.861504", "MEAN_MOTION": 14.51326297, "ECCENTRICITY": 0.00258157, "INCLINATION": 86.3522, "RA_OF_ASC_NODE": 42.0105, "ARG_OF_PERICENTER": 178.4192, "MEAN_ANOMALY": 181.71, "EPHEMERIS_TYPE": 0, "CLASSIFICATION_TYPE": "U", "NORAD_CAT_ID": 37548, "ELEMENT_SET_NO": 999, "REV_AT_EPOCH": 65577, "BSTAR": 0.00067405053, "MEAN_MOTION_DOT": 2.715e-05, "MEAN_MOTION_DDOT": 0}, "tle": {"line1": "1 37548U 97051XH  25349.86077386  .00002715  00000+0  67405-3 0  9996", "line2": "2 37548  86.3522  42.0105 0025815 178.4192 181.7100 14.51326297655778"}}, "geometry": {"type": "Point", "coordinates": [39.01591742950217, 11.675720922259691]}}]}